[{"OBJECT_NAME":"STARLINK-35332","OBJECT_ID":"2025-224F","EPOCH":"2026-03-09T23:32:12.787584","MEAN_MOTION":15.30215691,"ECCENTRICITY":0.000217,"INCLINATION":53.1598,"RA_OF_ASC_NODE":9.6526,"ARG_OF_PERICENTER":132.5505,"MEAN_ANOMALY":227.5679,"EPHEMERIS_TYPE":0,"CLASSIFICATION_TYPE":"U","NORAD_CAT_ID":65887,"ELEMENT_SET_NO":999,"REV_AT_EPOCH":2490,"BSTAR":0.0011079627,"MEAN_MOTION_DOT":0.00032616,"MEAN_MOTION_DDOT":0},{"OBJECT_NAME":"CZ-4B DEB","OBJECT_ID":"1999-057H","EPOCH":"2026-03-09T17:25:29.363520","MEAN_MOTION":15.25756771,"ECCENTRICITY":0.00339549,"INCLINATION":98.6728,"RA_OF_ASC_NODE":149.1557,"ARG_OF_PERICENTER":175.409,"MEAN_ANOMALY":184.7463,"EPHEMERIS_TYPE":0,"CLASSIFICATION_TYPE":"U","NORAD_CAT_ID":26121,"ELEMENT_SET_NO":999,"REV_AT_EPOCH":41150,"BSTAR":0.00075758105,"MEAN_MOTION_DOT":0.00019602,"MEAN_MOTION_DDOT":0}]
